{
  "type": "FeatureCollection",
  "features": [
    {
      "type": "Feature",
      "properties": {
        "norad_id": 35462,
        "name": "COSMOS 2251 DEB",
        "group": "cosmos-2251-debris",
        "lat": -67.99193985845756,
        "lon": 151.79469413860332,
        "alt_km": 778.9523515337587,
        "timestamp": "2025-12-02T19:35:50.950793+00:00",
        "meta_object_name": "COSMOS 2251 DEB",
        "meta_object_id": "1993-036ALG",
        "meta_epoch": "2025-12-01T03:45:45.448128",
        "meta_mean_motion": 14.29124029,
        "meta_eccentricity": 0.00870444,
        "meta_inclination": 74.036,
        "meta_ra_of_asc_node": 289.718,
        "meta_arg_of_pericenter": 327.319,
        "meta_mean_anomaly": 32.2589,
        "meta_ephemeris_type": 0,
        "meta_classification_type": "U",
        "meta_norad_cat_id": 35462,
        "meta_element_set_no": 999,
        "meta_rev_at_epoch": 66215,
        "meta_bstar": 0.0017949723,
        "meta_mean_motion_dot": 4.718e-05,
        "meta_mean_motion_ddot": 0,
        "tle_line1": "1 35462U 93036ALG 25335.15677602  .00004718  00000+0  17950-2 0  9996",
        "tle_line2": "2 35462  74.0360 289.7180 0087044 327.3190  32.2589 14.29124029662158"
      },
      "geometry": {
        "type": "Point",
        "coordinates": [
          151.79469413860332,
          -67.99193985845756
        ]
      }
    },
    {
      "type": "Feature",
      "properties": {
        "norad_id": 35465,
        "name": "COSMOS 2251 DEB",
        "group": "cosmos-2251-debris",
        "lat": 40.641759821895,
        "lon": 21.275065938145623,
        "alt_km": 762.6971953824959,
        "timestamp": "2025-12-02T19:35:50.950803+00:00",
        "meta_object_name": "COSMOS 2251 DEB",
        "meta_object_id": "1993-036ALK",
        "meta_epoch": "2025-11-29T22:48:34.232544",
        "meta_mean_motion": 14.44263019,
        "meta_eccentricity": 0.00634289,
        "meta_inclination": 73.9997,
        "meta_ra_of_asc_node": 220.8763,
        "meta_arg_of_pericenter": 24.0529,
        "meta_mean_anomaly": 336.3567,
        "meta_ephemeris_type": 0,
        "meta_classification_type": "U",
        "meta_norad_cat_id": 35465,
        "meta_element_set_no": 999,
        "meta_rev_at_epoch": 87057,
        "meta_bstar": 0.00049692277,
        "meta_mean_motion_dot": 1.723e-05,
        "meta_mean_motion_ddot": 0,
        "tle_line1": "1 35465U 93036ALK 25333.95039621  .00001723  00000+0  49692-3 0  9990",
        "tle_line2": "2 35465  73.9997 220.8763 0063428  24.0529 336.3567 14.44263019870576"
      },
      "geometry": {
        "type": "Point",
        "coordinates": [
          21.275065938145623,
          40.641759821895
        ]
      }
    },
    {
      "type": "Feature",
      "properties": {
        "norad_id": 35469,
        "name": "COSMOS 2251 DEB",
        "group": "cosmos-2251-debris",
        "lat": 42.5137999964681,
        "lon": -152.7096710979076,
        "alt_km": 698.809350067083,
        "timestamp": "2025-12-02T19:35:50.950814+00:00",
        "meta_object_name": "COSMOS 2251 DEB",
        "meta_object_id": "1993-036ALP",
        "meta_epoch": "2025-12-01T11:30:18.514944",
        "meta_mean_motion": 14.49801168,
        "meta_eccentricity": 0.00774879,
        "meta_inclination": 74.0179,
        "meta_ra_of_asc_node": 45.0354,
        "meta_arg_of_pericenter": 203.0672,
        "meta_mean_anomaly": 156.7004,
        "meta_ephemeris_type": 0,
        "meta_classification_type": "U",
        "meta_norad_cat_id": 35469,
        "meta_element_set_no": 999,
        "meta_rev_at_epoch": 87948,
        "meta_bstar": 0.0001544866,
        "meta_mean_motion_dot": 5.89e-06,
        "meta_mean_motion_ddot": 0,
        "tle_line1": "1 35469U 93036ALP 25335.47938096  .00000589  00000+0  15449-3 0  9999",
        "tle_line2": "2 35469  74.0179  45.0354 0077487 203.0672 156.7004 14.49801168879482"
      },
      "geometry": {
        "type": "Point",
        "coordinates": [
          -152.7096710979076,
          42.5137999964681
        ]
      }
    },
    {
      "type": "Feature",
      "properties": {
        "norad_id": 35475,
        "name": "COSMOS 2251 DEB",
        "group": "cosmos-2251-debris",
        "lat": 4.1331574932518125,
        "lon": -173.94753148590013,
        "alt_km": 669.1972565361611,
        "timestamp": "2025-12-02T19:35:50.950824+00:00",
        "meta_object_name": "COSMOS 2251 DEB",
        "meta_object_id": "1993-036ALV",
        "meta_epoch": "2025-12-02T06:30:21.330144",
        "meta_mean_motion": 14.69388033,
        "meta_eccentricity": 0.0021308,
        "meta_inclination": 74.022,
        "meta_ra_of_asc_node": 185.9231,
        "meta_arg_of_pericenter": 259.5642,
        "meta_mean_anomaly": 100.3127,
        "meta_ephemeris_type": 0,
        "meta_classification_type": "U",
        "meta_norad_cat_id": 35475,
        "meta_element_set_no": 999,
        "meta_rev_at_epoch": 65463,
        "meta_bstar": 0.0018441,
        "meta_mean_motion_dot": 0.00010931,
        "meta_mean_motion_ddot": 0,
        "tle_line1": "1 35475U 93036ALV 25336.27108021  .00010931  00000+0  18441-2 0  9998",
        "tle_line2": "2 35475  74.0220 185.9231 0021308 259.5642 100.3127 14.69388033654630"
      },
      "geometry": {
        "type": "Point",
        "coordinates": [
          -173.94753148590013,
          4.1331574932518125
        ]
      }
    },
    {
      "type": "Feature",
      "properties": {
        "norad_id": 35476,
        "name": "COSMOS 2251 DEB",
        "group": "cosmos-2251-debris",
        "lat": -1.7694418480815561,
        "lon": 79.88344491225588,
        "alt_km": 642.9600186454636,
        "timestamp": "2025-12-02T19:35:50.950834+00:00",
        "meta_object_name": "COSMOS 2251 DEB",
        "meta_object_id": "1993-036ALW",
        "meta_epoch": "2025-12-02T08:28:00.724224",
        "meta_mean_motion": 14.75278986,
        "meta_eccentricity": 0.0017226,
        "meta_inclination": 73.9781,
        "meta_ra_of_asc_node": 81.3016,
        "meta_arg_of_pericenter": 69.3737,
        "meta_mean_anomaly": 346.9835,
        "meta_ephemeris_type": 0,
        "meta_classification_type": "U",
        "meta_norad_cat_id": 35476,
        "meta_element_set_no": 999,
        "meta_rev_at_epoch": 87734,
        "meta_bstar": 0.0023282,
        "meta_mean_motion_dot": 0.00015808,
        "meta_mean_motion_ddot": 0,
        "tle_line1": "1 35476U 93036ALW 25336.35278616  .00015808  00000+0  23282-2 0  9993",
        "tle_line2": "2 35476  73.9781  81.3016 0017226  69.3737 346.9835 14.75278986877348"
      },
      "geometry": {
        "type": "Point",
        "coordinates": [
          79.88344491225588,
          -1.7694418480815561
        ]
      }
    },
    {
      "type": "Feature",
      "properties": {
        "norad_id": 35580,
        "name": "COSMOS 2251 DEB",
        "group": "cosmos-2251-debris",
        "lat": 51.83791987349164,
        "lon": -5.948938594749146,
        "alt_km": 896.0164310009504,
        "timestamp": "2025-12-02T19:35:50.950844+00:00",
        "meta_object_name": "COSMOS 2251 DEB",
        "meta_object_id": "1993-036ALX",
        "meta_epoch": "2025-11-11T02:25:47.460864",
        "meta_mean_motion": 13.83664367,
        "meta_eccentricity": 0.0284653,
        "meta_inclination": 73.9022,
        "meta_ra_of_asc_node": 232.5156,
        "meta_arg_of_pericenter": 243.9426,
        "meta_mean_anomaly": 113.2144,
        "meta_ephemeris_type": 0,
        "meta_classification_type": "U",
        "meta_norad_cat_id": 35580,
        "meta_element_set_no": 999,
        "meta_rev_at_epoch": 61819,
        "meta_bstar": 0.0015271116,
        "meta_mean_motion_dot": 2.282e-05,
        "meta_mean_motion_ddot": 0,
        "tle_line1": "1 35580U 93036ALX 25315.10124376  .00002282  00000+0  15271-2 0  9993",
        "tle_line2": "2 35580  73.9022 232.5156 0284653 243.9426 113.2144 13.83664367618196"
      },
      "geometry": {
        "type": "Point",
        "coordinates": [
          -5.948938594749146,
          51.83791987349164
        ]
      }
    },
    {
      "type": "Feature",
      "properties": {
        "norad_id": 35583,
        "name": "COSMOS 2251 DEB",
        "group": "cosmos-2251-debris",
        "lat": 56.3087012961335,
        "lon": 22.46043356034628,
        "alt_km": 1241.5492836415906,
        "timestamp": "2025-12-02T19:35:50.950854+00:00",
        "meta_object_name": "COSMOS 2251 DEB",
        "meta_object_id": "1993-036AMA",
        "meta_epoch": "2025-12-01T09:18:45.701280",
        "meta_mean_motion": 13.55311164,
        "meta_eccentricity": 0.03859858,
        "meta_inclination": 73.9177,
        "meta_ra_of_asc_node": 230.413,
        "meta_arg_of_pericenter": 256.8414,
        "meta_mean_anomaly": 98.9367,
        "meta_ephemeris_type": 0,
        "meta_classification_type": "U",
        "meta_norad_cat_id": 35583,
        "meta_element_set_no": 999,
        "meta_rev_at_epoch": 82258,
        "meta_bstar": 0.00049161142,
        "meta_mean_motion_dot": 5.24e-06,
        "meta_mean_motion_ddot": 0,
        "tle_line1": "1 35583U 93036AMA 25335.38802895  .00000524  00000+0  49161-3 0  9990",
        "tle_line2": "2 35583  73.9177 230.4130 0385985 256.8414  98.9367 13.55311164822588"
      },
      "geometry": {
        "type": "Point",
        "coordinates": [
          22.46043356034628,
          56.3087012961335
        ]
      }
    }
  ]
}